KUIPER-00027            
1 63740U 25088S   25205.69273187  .00010806  00000+0  29380-3 0  9999
2 63740  51.8712  38.6824 0001844  82.0654 278.0542 15.38076333 13640
KUIPER-00028            
1 63741U 25088T   25206.52866913  .00014802  00000+0  39695-3 0  9998
2 63741  51.8706  34.5318 0001626  60.3890 299.7258 15.38190781 14184
KUIPER-00029            
1 63742U 25088U   25206.51728318  .00014403  00000+0  40137-3 0  9994
2 63742  51.8705  35.1852 0005096  73.6596 286.4950 15.37014370 13706
KUIPER-00030            
1 63743U 25088V   25206.50001157  .00040121  00000+0  23080-2 0  9992
2 63743  51.8862  38.8650 0012407  52.6568 289.5776 15.12013201  4892
KUIPER-00031            
1 63744U 25088W   25206.55160315  .00012870  00000+0  35182-3 0  9997
2 63744  51.8700  34.6762 0004130  69.5551 290.5879 15.37721879 13716
KUIPER-00032            
1 63745U 25088X   25206.50344780 -.00182783  00000+0 -51338-2 0  9996
2 63745  51.8696  35.0912 0004905  65.2600 294.8897 15.36672141 14704
KUIPER-00033            
1 63746U 25088Y   25205.98421286  .00002051  00000+0  29898-3 0  9999
2 63746  51.9016  53.5102 0003404 131.5521 228.5734 14.79795481 13881
KUIPER-00034            
1 63747U 25088Z   25206.53296606  .00014604  00000+0  39601-3 0  9998
2 63747  51.8712  34.5618 0002166  87.0482 273.0752 15.37858291 13878
